{"type":"FeatureCollection","features":[{"type":"Feature","properties":{"kind":"river","op":0.21},"geometry":{"type":"LineString","coordinates":[[9.72281,47.43251],[9.7229,47.43266]]}},{"type":"Feature","properties":{"kind":"river","op":0.13},"geometry":{"type":"LineString","coordinates":[[9.7229,47.43266],[9.72307,47.43289]]}},{"type":"Feature","properties":{"kind":"river","op":0.05},"geometry":{"type":"LineString","coordinates":[[9.72307,47.43289],[9.72332,47.43316]]}},{"type":"Feature","properties":{"kind":"river","op":0.09},"geometry":{"type":"LineString","coordinates":[[9.7684,47.39286],[9.76795,47.39331]]}},{"type":"Feature","properties":{"kind":"river","op":0.25},"geometry":{"type":"LineString","coordinates":[[9.76795,47.39331],[9.76779,47.39355]]}},{"type":"Feature","properties":{"kind":"river","op":0.45},"geometry":{"type":"LineString","coordinates":[[9.76779,47.39355],[9.76755,47.39392]]}},{"type":"Feature","properties":{"kind":"river","op":0.65},"geometry":{"type":"LineString","coordinates":[[9.76755,47.39392],[9.76716,47.39409]]}},{"type":"Feature","properties":{"kind":"river","op":0.78},"geometry":{"type":"LineString","coordinates":[[9.76716,47.39409],[9.76622,47.3942]]}},{"type":"Feature","properties":{"kind":"river","op":0.78},"geometry":{"type":"LineString","coordinates":[[9.76622,47.3942],[9.76546,47.39422]]}},{"type":"Feature","properties":{"kind":"river","op":0.74},"geometry":{"type":"LineString","coordinates":[[9.76546,47.39422],[9.76542,47.39422]]}},{"type":"Feature","properties":{"kind":"river","op":0.7},"geometry":{"type":"LineString","coordinates":[[9.76542,47.39422],[9.7648,47.39429]]}},{"type":"Feature","properties":{"kind":"river","op":0.66},"geometry":{"type":"LineString","coordinates":[[9.7648,47.39429],[9.76437,47.39443]]}},{"type":"Feature","properties":{"kind":"river","op":0.63},"geometry":{"type":"LineString","coordinates":[[9.76437,47.39443],[9.76403,47.39458]]}},{"type":"Feature","properties":{"kind":"river","op":0.62},"geometry":{"type":"LineString","coordinates":[[9.76403,47.39458],[9.76375,47.39478]]}},{"type":"Feature","properties":{"kind":"river","op":0.61},"geometry":{"type":"LineString","coordinates":[[9.76375,47.39478],[9.76354,47.39499]]}},{"type":"Feature","properties":{"kind":"river","op":0.61},"geometry":{"type":"LineString","coordinates":[[9.76354,47.39499],[9.76349,47.39504]]}},{"type":"Feature","properties":{"kind":"river","op":0.61},"geometry":{"type":"LineString","coordinates":[[9.76349,47.39504],[9.76345,47.3951]]}},{"type":"Feature","properties":{"kind":"river","op":0.61},"geometry":{"type":"LineString","coordinates":[[9.76345,47.3951],[9.76325,47.39542]]}},{"type":"Feature","properties":{"kind":"river","op":0.77},"geometry":{"type":"LineString","coordinates":[[9.76325,47.39542],[9.76314,47.3956]]}},{"type":"Feature","properties":{"kind":"river","op":0.88},"geometry":{"type":"LineString","coordinates":[[9.76314,47.3956],[9.763,47.39586]]}},{"type":"Feature","properties":{"kind":"river","op":0.98},"geometry":{"type":"LineString","coordinates":[[9.763,47.39586],[9.76279,47.39628]]}},{"type":"Feature","properties":{"kind":"river","op":1},"geometry":{"type":"LineString","coordinates":[[9.76279,47.39628],[9.76256,47.39658]]}},{"type":"Feature","properties":{"kind":"river","op":1},"geometry":{"type":"LineString","coordinates":[[9.76256,47.39658],[9.76219,47.39696]]}},{"type":"Feature","properties":{"kind":"river","op":1},"geometry":{"type":"LineString","coordinates":[[9.76219,47.39696],[9.76196,47.39713]]}},{"type":"Feature","properties":{"kind":"river","op":1},"geometry":{"type":"LineString","coordinates":[[9.76196,47.39713],[9.76195,47.39713]]}},{"type":"Feature","properties":{"kind":"river","op":1},"geometry":{"type":"LineString","coordinates":[[9.76195,47.39713],[9.76155,47.39732]]}},{"type":"Feature","properties":{"kind":"river","op":1},"geometry":{"type":"LineString","coordinates":[[9.76155,47.39732],[9.76151,47.39734]]}},{"type":"Feature","properties":{"kind":"river","op":1},"geometry":{"type":"LineString","coordinates":[[9.76151,47.39734],[9.76102,47.39746]]}},{"type":"Feature","properties":{"kind":"river","op":1},"geometry":{"type":"LineString","coordinates":[[9.76102,47.39746],[9.76035,47.3975]]}},{"type":"Feature","properties":{"kind":"river","op":1},"geometry":{"type":"LineString","coordinates":[[9.76035,47.3975],[9.75979,47.39751]]}},{"type":"Feature","properties":{"kind":"river","op":1},"geometry":{"type":"LineString","coordinates":[[9.75979,47.39751],[9.75933,47.39752]]}},{"type":"Feature","properties":{"kind":"river","op":1},"geometry":{"type":"LineString","coordinates":[[9.75933,47.39752],[9.75896,47.39758]]}},{"type":"Feature","properties":{"kind":"river","op":1},"geometry":{"type":"LineString","coordinates":[[9.75896,47.39758],[9.75885,47.39761]]}},{"type":"Feature","properties":{"kind":"river","op":1},"geometry":{"type":"LineString","coordinates":[[9.75885,47.39761],[9.75881,47.39762]]}},{"type":"Feature","properties":{"kind":"river","op":1},"geometry":{"type":"LineString","coordinates":[[9.75881,47.39762],[9.75869,47.39764]]}},{"type":"Feature","properties":{"kind":"river","op":1},"geometry":{"type":"LineString","coordinates":[[9.75869,47.39764],[9.75843,47.3977]]}},{"type":"Feature","properties":{"kind":"river","op":1},"geometry":{"type":"LineString","coordinates":[[9.75843,47.3977],[9.75813,47.39778]]}},{"type":"Feature","properties":{"kind":"river","op":1},"geometry":{"type":"LineString","coordinates":[[9.75813,47.39778],[9.75774,47.39792]]}},{"type":"Feature","properties":{"kind":"river","op":1},"geometry":{"type":"LineString","coordinates":[[9.75774,47.39792],[9.75733,47.39809]]}},{"type":"Feature","properties":{"kind":"river","op":1},"geometry":{"type":"LineString","coordinates":[[9.75733,47.39809],[9.75674,47.39831]]}},{"type":"Feature","properties":{"kind":"river","op":1},"geometry":{"type":"LineString","coordinates":[[9.75674,47.39831],[9.75649,47.3984]]}},{"type":"Feature","properties":{"kind":"river","op":1},"geometry":{"type":"LineString","coordinates":[[9.75649,47.3984],[9.75608,47.39855]]}},{"type":"Feature","properties":{"kind":"river","op":1},"geometry":{"type":"LineString","coordinates":[[9.75608,47.39855],[9.75571,47.39872]]}},{"type":"Feature","properties":{"kind":"river","op":1},"geometry":{"type":"LineString","coordinates":[[9.75571,47.39872],[9.75498,47.39916]]}},{"type":"Feature","properties":{"kind":"river","op":1},"geometry":{"type":"LineString","coordinates":[[9.75498,47.39916],[9.75464,47.39934]]}},{"type":"Feature","properties":{"kind":"river","op":1},"geometry":{"type":"LineString","coordinates":[[9.75464,47.39934],[9.75459,47.39936]]}},{"type":"Feature","properties":{"kind":"river","op":1},"geometry":{"type":"LineString","coordinates":[[9.75459,47.39936],[9.75414,47.39966]]}},{"type":"Feature","properties":{"kind":"river","op":1},"geometry":{"type":"LineString","coordinates":[[9.75414,47.39966],[9.75343,47.40016]]}},{"type":"Feature","properties":{"kind":"river","op":1},"geometry":{"type":"LineString","coordinates":[[9.75343,47.40016],[9.75288,47.40046]]}},{"type":"Feature","properties":{"kind":"river","op":1},"geometry":{"type":"LineString","coordinates":[[9.75288,47.40046],[9.75146,47.40119]]}},{"type":"Feature","properties":{"kind":"river","op":1},"geometry":{"type":"LineString","coordinates":[[9.75146,47.40119],[9.75145,47.4012]]}},{"type":"Feature","properties":{"kind":"river","op":1},"geometry":{"type":"LineString","coordinates":[[9.75145,47.4012],[9.7508,47.40155]]}},{"type":"Feature","properties":{"kind":"river","op":1},"geometry":{"type":"LineString","coordinates":[[9.7508,47.40155],[9.74904,47.40252]]}},{"type":"Feature","properties":{"kind":"river","op":1},"geometry":{"type":"LineString","coordinates":[[9.74904,47.40252],[9.74897,47.40256]]}},{"type":"Feature","properties":{"kind":"river","op":1},"geometry":{"type":"LineString","coordinates":[[9.74897,47.40256],[9.74838,47.40286]]}},{"type":"Feature","properties":{"kind":"river","op":1},"geometry":{"type":"LineString","coordinates":[[9.74838,47.40286],[9.74789,47.40312]]}},{"type":"Feature","properties":{"kind":"river","op":1},"geometry":{"type":"LineString","coordinates":[[9.74789,47.40312],[9.74675,47.40374]]}},{"type":"Feature","properties":{"kind":"river","op":1},"geometry":{"type":"LineString","coordinates":[[9.74675,47.40374],[9.74606,47.40411]]}},{"type":"Feature","properties":{"kind":"river","op":1},"geometry":{"type":"LineString","coordinates":[[9.74606,47.40411],[9.74601,47.40414]]}},{"type":"Feature","properties":{"kind":"river","op":1},"geometry":{"type":"LineString","coordinates":[[9.74601,47.40414],[9.74533,47.40451]]}},{"type":"Feature","properties":{"kind":"river","op":1},"geometry":{"type":"LineString","coordinates":[[9.74533,47.40451],[9.74459,47.40492]]}},{"type":"Feature","properties":{"kind":"river","op":1},"geometry":{"type":"LineString","coordinates":[[9.74459,47.40492],[9.74382,47.40534]]}},{"type":"Feature","properties":{"kind":"river","op":1},"geometry":{"type":"LineString","coordinates":[[9.74382,47.40534],[9.74333,47.4056]]}},{"type":"Feature","properties":{"kind":"river","op":1},"geometry":{"type":"LineString","coordinates":[[9.74333,47.4056],[9.74262,47.40598]]}},{"type":"Feature","properties":{"kind":"river","op":1},"geometry":{"type":"LineString","coordinates":[[9.74262,47.40598],[9.74207,47.40619]]}},{"type":"Feature","properties":{"kind":"river","op":1},"geometry":{"type":"LineString","coordinates":[[9.74207,47.40619],[9.74168,47.40631]]}},{"type":"Feature","properties":{"kind":"river","op":1},"geometry":{"type":"LineString","coordinates":[[9.74168,47.40631],[9.74041,47.40671]]}},{"type":"Feature","properties":{"kind":"river","op":1},"geometry":{"type":"LineString","coordinates":[[9.74041,47.40671],[9.73904,47.40713]]}},{"type":"Feature","properties":{"kind":"river","op":1},"geometry":{"type":"LineString","coordinates":[[9.73904,47.40713],[9.73778,47.40753]]}},{"type":"Feature","properties":{"kind":"river","op":1},"geometry":{"type":"LineString","coordinates":[[9.73778,47.40753],[9.73766,47.40756]]}},{"type":"Feature","properties":{"kind":"river","op":1},"geometry":{"type":"LineString","coordinates":[[9.73766,47.40756],[9.73684,47.4078]]}},{"type":"Feature","properties":{"kind":"river","op":1},"geometry":{"type":"LineString","coordinates":[[9.73684,47.4078],[9.73653,47.40791]]}},{"type":"Feature","properties":{"kind":"river","op":1},"geometry":{"type":"LineString","coordinates":[[9.73653,47.40791],[9.73648,47.40793]]}},{"type":"Feature","properties":{"kind":"river","op":1},"geometry":{"type":"LineString","coordinates":[[9.73648,47.40793],[9.73598,47.40811]]}},{"type":"Feature","properties":{"kind":"river","op":1},"geometry":{"type":"LineString","coordinates":[[9.73598,47.40811],[9.73526,47.4084]]}},{"type":"Feature","properties":{"kind":"river","op":1},"geometry":{"type":"LineString","coordinates":[[9.73526,47.4084],[9.73512,47.40846]]}},{"type":"Feature","properties":{"kind":"river","op":1},"geometry":{"type":"LineString","coordinates":[[9.73512,47.40846],[9.73437,47.40885]]}},{"type":"Feature","properties":{"kind":"river","op":1},"geometry":{"type":"LineString","coordinates":[[9.73437,47.40885],[9.73413,47.40899]]}},{"type":"Feature","properties":{"kind":"river","op":1},"geometry":{"type":"LineString","coordinates":[[9.73413,47.40899],[9.73367,47.40925]]}},{"type":"Feature","properties":{"kind":"river","op":1},"geometry":{"type":"LineString","coordinates":[[9.73367,47.40925],[9.73303,47.40965]]}},{"type":"Feature","properties":{"kind":"river","op":1},"geometry":{"type":"LineString","coordinates":[[9.73303,47.40965],[9.73244,47.41004]]}},{"type":"Feature","properties":{"kind":"river","op":1},"geometry":{"type":"LineString","coordinates":[[9.73244,47.41004],[9.73207,47.41033]]}},{"type":"Feature","properties":{"kind":"river","op":1},"geometry":{"type":"LineString","coordinates":[[9.73207,47.41033],[9.7314,47.41088]]}},{"type":"Feature","properties":{"kind":"river","op":1},"geometry":{"type":"LineString","coordinates":[[9.7314,47.41088],[9.73093,47.41145]]}},{"type":"Feature","properties":{"kind":"river","op":1},"geometry":{"type":"LineString","coordinates":[[9.73093,47.41145],[9.72992,47.41268]]}},{"type":"Feature","properties":{"kind":"river","op":1},"geometry":{"type":"LineString","coordinates":[[9.72992,47.41268],[9.72937,47.41326]]}},{"type":"Feature","properties":{"kind":"river","op":1},"geometry":{"type":"LineString","coordinates":[[9.72937,47.41326],[9.72907,47.41358]]}},{"type":"Feature","properties":{"kind":"river","op":1},"geometry":{"type":"LineString","coordinates":[[9.72907,47.41358],[9.72851,47.41416]]}},{"type":"Feature","properties":{"kind":"river","op":1},"geometry":{"type":"LineString","coordinates":[[9.72851,47.41416],[9.72715,47.41565]]}},{"type":"Feature","properties":{"kind":"river","op":1},"geometry":{"type":"LineString","coordinates":[[9.72715,47.41565],[9.72581,47.4171]]}},{"type":"Feature","properties":{"kind":"river","op":1},"geometry":{"type":"LineString","coordinates":[[9.72581,47.4171],[9.72506,47.41782]]}},{"type":"Feature","properties":{"kind":"river","op":1},"geometry":{"type":"LineString","coordinates":[[9.72506,47.41782],[9.7244,47.41845]]}},{"type":"Feature","properties":{"kind":"river","op":1},"geometry":{"type":"LineString","coordinates":[[9.7244,47.41845],[9.72435,47.4185]]}},{"type":"Feature","properties":{"kind":"river","op":1},"geometry":{"type":"LineString","coordinates":[[9.72435,47.4185],[9.72401,47.41891]]}},{"type":"Feature","properties":{"kind":"river","op":1},"geometry":{"type":"LineString","coordinates":[[9.72401,47.41891],[9.72383,47.41924]]}},{"type":"Feature","properties":{"kind":"river","op":1},"geometry":{"type":"LineString","coordinates":[[9.72383,47.41924],[9.72373,47.41945]]}},{"type":"Feature","properties":{"kind":"river","op":1},"geometry":{"type":"LineString","coordinates":[[9.72373,47.41945],[9.72362,47.4197]]}},{"type":"Feature","properties":{"kind":"river","op":1},"geometry":{"type":"LineString","coordinates":[[9.72362,47.4197],[9.72344,47.42008]]}},{"type":"Feature","properties":{"kind":"river","op":1},"geometry":{"type":"LineString","coordinates":[[9.72344,47.42008],[9.72321,47.42037]]}},{"type":"Feature","properties":{"kind":"river","op":1},"geometry":{"type":"LineString","coordinates":[[9.72321,47.42037],[9.72291,47.42075]]}},{"type":"Feature","properties":{"kind":"river","op":1},"geometry":{"type":"LineString","coordinates":[[9.72291,47.42075],[9.72258,47.42103]]}},{"type":"Feature","properties":{"kind":"river","op":0.99},"geometry":{"type":"LineString","coordinates":[[9.72258,47.42103],[9.72232,47.42124]]}},{"type":"Feature","properties":{"kind":"river","op":0.94},"geometry":{"type":"LineString","coordinates":[[9.72232,47.42124],[9.72212,47.42152]]}},{"type":"Feature","properties":{"kind":"river","op":0.85},"geometry":{"type":"LineString","coordinates":[[9.72212,47.42152],[9.7221,47.42176]]}},{"type":"Feature","properties":{"kind":"river","op":0.73},"geometry":{"type":"LineString","coordinates":[[9.7221,47.42176],[9.72217,47.42203]]}},{"type":"Feature","properties":{"kind":"river","op":0.79},"geometry":{"type":"LineString","coordinates":[[9.72217,47.42203],[9.72236,47.42229]]}},{"type":"Feature","properties":{"kind":"river","op":0.91},"geometry":{"type":"LineString","coordinates":[[9.72236,47.42229],[9.72263,47.42257]]}},{"type":"Feature","properties":{"kind":"river","op":0.98},"geometry":{"type":"LineString","coordinates":[[9.72263,47.42257],[9.72281,47.42277]]}},{"type":"Feature","properties":{"kind":"river","op":1},"geometry":{"type":"LineString","coordinates":[[9.72281,47.42277],[9.72288,47.42292]]}},{"type":"Feature","properties":{"kind":"river","op":1},"geometry":{"type":"LineString","coordinates":[[9.72288,47.42292],[9.72284,47.42309]]}},{"type":"Feature","properties":{"kind":"river","op":1},"geometry":{"type":"LineString","coordinates":[[9.72284,47.42309],[9.72272,47.42326]]}},{"type":"Feature","properties":{"kind":"river","op":1},"geometry":{"type":"LineString","coordinates":[[9.72272,47.42326],[9.72241,47.4235]]}},{"type":"Feature","properties":{"kind":"river","op":0.99},"geometry":{"type":"LineString","coordinates":[[9.72241,47.4235],[9.72219,47.42353]]}},{"type":"Feature","properties":{"kind":"river","op":0.94},"geometry":{"type":"LineString","coordinates":[[9.72219,47.42353],[9.72182,47.42353]]}},{"type":"Feature","properties":{"kind":"river","op":0.88},"geometry":{"type":"LineString","coordinates":[[9.72182,47.42353],[9.72166,47.42362]]}},{"type":"Feature","properties":{"kind":"river","op":0.85},"geometry":{"type":"LineString","coordinates":[[9.72166,47.42362],[9.72152,47.42383]]}},{"type":"Feature","properties":{"kind":"river","op":0.85},"geometry":{"type":"LineString","coordinates":[[9.72152,47.42383],[9.72148,47.42414]]}},{"type":"Feature","properties":{"kind":"river","op":0.9},"geometry":{"type":"LineString","coordinates":[[9.72148,47.42414],[9.72153,47.42434]]}},{"type":"Feature","properties":{"kind":"river","op":0.95},"geometry":{"type":"LineString","coordinates":[[9.72153,47.42434],[9.7216,47.42463]]}},{"type":"Feature","properties":{"kind":"river","op":0.99},"geometry":{"type":"LineString","coordinates":[[9.7216,47.42463],[9.72196,47.42558]]}},{"type":"Feature","properties":{"kind":"river","op":0.99},"geometry":{"type":"LineString","coordinates":[[9.72196,47.42558],[9.72198,47.42579]]}},{"type":"Feature","properties":{"kind":"river","op":1},"geometry":{"type":"LineString","coordinates":[[9.72198,47.42579],[9.722,47.42598]]}},{"type":"Feature","properties":{"kind":"river","op":1},"geometry":{"type":"LineString","coordinates":[[9.722,47.42598],[9.72194,47.42663]]}},{"type":"Feature","properties":{"kind":"river","op":1},"geometry":{"type":"LineString","coordinates":[[9.72194,47.42663],[9.72166,47.42751]]}},{"type":"Feature","properties":{"kind":"river","op":1},"geometry":{"type":"LineString","coordinates":[[9.72166,47.42751],[9.72137,47.42867]]}},{"type":"Feature","properties":{"kind":"river","op":0.99},"geometry":{"type":"LineString","coordinates":[[9.72137,47.42867],[9.72131,47.42913]]}},{"type":"Feature","properties":{"kind":"river","op":0.99},"geometry":{"type":"LineString","coordinates":[[9.72131,47.42913],[9.72129,47.42951]]}},{"type":"Feature","properties":{"kind":"river","op":0.96},"geometry":{"type":"LineString","coordinates":[[9.72129,47.42951],[9.72121,47.43031]]}},{"type":"Feature","properties":{"kind":"river","op":0.82},"geometry":{"type":"LineString","coordinates":[[9.72121,47.43031],[9.72117,47.43074]]}},{"type":"Feature","properties":{"kind":"river","op":0.66},"geometry":{"type":"LineString","coordinates":[[9.72117,47.43074],[9.72122,47.43113]]}},{"type":"Feature","properties":{"kind":"river","op":0.5},"geometry":{"type":"LineString","coordinates":[[9.72122,47.43113],[9.72145,47.4315]]}},{"type":"Feature","properties":{"kind":"river","op":0.38},"geometry":{"type":"LineString","coordinates":[[9.72145,47.4315],[9.72178,47.43182]]}},{"type":"Feature","properties":{"kind":"river","op":0.36},"geometry":{"type":"LineString","coordinates":[[9.72178,47.43182],[9.72218,47.43205]]}},{"type":"Feature","properties":{"kind":"river","op":0.34},"geometry":{"type":"LineString","coordinates":[[9.72218,47.43205],[9.72251,47.43228]]}},{"type":"Feature","properties":{"kind":"river","op":0.29},"geometry":{"type":"LineString","coordinates":[[9.72251,47.43228],[9.72266,47.43239]]}},{"type":"Feature","properties":{"kind":"river","op":0.26},"geometry":{"type":"LineString","coordinates":[[9.72266,47.43239],[9.72281,47.43251]]}},{"type":"Feature","properties":{"kind":"river","op":0.99},"geometry":{"type":"LineString","coordinates":[[9.72241,47.4235],[9.72224,47.42381]]}},{"type":"Feature","properties":{"kind":"river","op":0.99},"geometry":{"type":"LineString","coordinates":[[9.72224,47.42381],[9.72221,47.42437]]}},{"type":"Feature","properties":{"kind":"river","op":1},"geometry":{"type":"LineString","coordinates":[[9.72221,47.42437],[9.72216,47.42498]]}},{"type":"Feature","properties":{"kind":"river","op":1},"geometry":{"type":"LineString","coordinates":[[9.72216,47.42498],[9.72212,47.42539]]}},{"type":"Feature","properties":{"kind":"river","op":0.99},"geometry":{"type":"LineString","coordinates":[[9.72212,47.42539],[9.72198,47.42579]]}},{"type":"Feature","properties":{"kind":"river","op":1},"geometry":{"type":"LineString","coordinates":[[9.75869,47.39764],[9.75834,47.3979]]}},{"type":"Feature","properties":{"kind":"river","op":1},"geometry":{"type":"LineString","coordinates":[[9.75834,47.3979],[9.75792,47.39815]]}},{"type":"Feature","properties":{"kind":"river","op":1},"geometry":{"type":"LineString","coordinates":[[9.75792,47.39815],[9.75771,47.39823]]}},{"type":"Feature","properties":{"kind":"river","op":1},"geometry":{"type":"LineString","coordinates":[[9.75771,47.39823],[9.75736,47.39828]]}},{"type":"Feature","properties":{"kind":"river","op":1},"geometry":{"type":"LineString","coordinates":[[9.75736,47.39828],[9.75674,47.39831]]}},{"type":"Feature","properties":{"kind":"river","op":1},"geometry":{"type":"LineString","coordinates":[[9.72401,47.41891],[9.72349,47.41935]]}},{"type":"Feature","properties":{"kind":"river","op":1},"geometry":{"type":"LineString","coordinates":[[9.72349,47.41935],[9.72325,47.41958]]}},{"type":"Feature","properties":{"kind":"river","op":1},"geometry":{"type":"LineString","coordinates":[[9.72325,47.41958],[9.72315,47.41979]]}},{"type":"Feature","properties":{"kind":"river","op":1},"geometry":{"type":"LineString","coordinates":[[9.72315,47.41979],[9.72315,47.41998]]}},{"type":"Feature","properties":{"kind":"river","op":1},"geometry":{"type":"LineString","coordinates":[[9.72315,47.41998],[9.72321,47.42037]]}},{"type":"Feature","properties":{"kind":"river","op":0.98},"geometry":{"type":"LineString","coordinates":[[9.72291,47.42075],[9.72308,47.42113]]}},{"type":"Feature","properties":{"kind":"river","op":0.94},"geometry":{"type":"LineString","coordinates":[[9.72308,47.42113],[9.72313,47.42151]]}},{"type":"Feature","properties":{"kind":"river","op":0.98},"geometry":{"type":"LineString","coordinates":[[9.72313,47.42151],[9.72306,47.42201]]}},{"type":"Feature","properties":{"kind":"river","op":0.98},"geometry":{"type":"LineString","coordinates":[[9.72306,47.42201],[9.72288,47.42247]]}},{"type":"Feature","properties":{"kind":"river","op":0.99},"geometry":{"type":"LineString","coordinates":[[9.72288,47.42247],[9.72281,47.42277]]}},{"type":"Feature","properties":{"kind":"canal","op":1},"geometry":{"type":"LineString","coordinates":[[9.72222,47.41333],[9.72227,47.41357]]}},{"type":"Feature","properties":{"kind":"canal","op":1},"geometry":{"type":"LineString","coordinates":[[9.72227,47.41357],[9.72224,47.41366]]}},{"type":"Feature","properties":{"kind":"canal","op":1},"geometry":{"type":"LineString","coordinates":[[9.72224,47.41366],[9.7223,47.41395]]}},{"type":"Feature","properties":{"kind":"canal","op":1},"geometry":{"type":"LineString","coordinates":[[9.7223,47.41395],[9.7223,47.4142]]}},{"type":"Feature","properties":{"kind":"canal","op":1},"geometry":{"type":"LineString","coordinates":[[9.7223,47.4142],[9.72228,47.41443]]}},{"type":"Feature","properties":{"kind":"canal","op":1},"geometry":{"type":"LineString","coordinates":[[9.72228,47.41443],[9.7222,47.41453]]}},{"type":"Feature","properties":{"kind":"canal","op":1},"geometry":{"type":"LineString","coordinates":[[9.7222,47.41453],[9.72223,47.41466]]}},{"type":"Feature","properties":{"kind":"canal","op":1},"geometry":{"type":"LineString","coordinates":[[9.72223,47.41466],[9.72229,47.41475]]}},{"type":"Feature","properties":{"kind":"canal","op":1},"geometry":{"type":"LineString","coordinates":[[9.72229,47.41475],[9.72224,47.41488]]}},{"type":"Feature","properties":{"kind":"canal","op":1},"geometry":{"type":"LineString","coordinates":[[9.72224,47.41488],[9.72226,47.41505]]}},{"type":"Feature","properties":{"kind":"canal","op":1},"geometry":{"type":"LineString","coordinates":[[9.72224,47.41517],[9.72211,47.41554]]}},{"type":"Feature","properties":{"kind":"canal","op":1},"geometry":{"type":"LineString","coordinates":[[9.72211,47.41554],[9.72205,47.41559]]}},{"type":"Feature","properties":{"kind":"canal","op":1},"geometry":{"type":"LineString","coordinates":[[9.72205,47.41559],[9.72197,47.41563]]}},{"type":"Feature","properties":{"kind":"canal","op":1},"geometry":{"type":"LineString","coordinates":[[9.72197,47.41563],[9.7218,47.41574]]}},{"type":"Feature","properties":{"kind":"canal","op":1},"geometry":{"type":"LineString","coordinates":[[9.7218,47.41574],[9.72156,47.41582]]}},{"type":"Feature","properties":{"kind":"canal","op":1},"geometry":{"type":"LineString","coordinates":[[9.72156,47.41582],[9.72141,47.41596]]}},{"type":"Feature","properties":{"kind":"canal","op":1},"geometry":{"type":"LineString","coordinates":[[9.72141,47.41596],[9.72124,47.41625]]}},{"type":"Feature","properties":{"kind":"canal","op":1},"geometry":{"type":"LineString","coordinates":[[9.72124,47.41625],[9.72111,47.41636]]}},{"type":"Feature","properties":{"kind":"canal","op":1},"geometry":{"type":"LineString","coordinates":[[9.72111,47.41636],[9.72086,47.41656]]}},{"type":"Feature","properties":{"kind":"canal","op":1},"geometry":{"type":"LineString","coordinates":[[9.72086,47.41656],[9.7205,47.41686]]}},{"type":"Feature","properties":{"kind":"canal","op":1},"geometry":{"type":"LineString","coordinates":[[9.7205,47.41686],[9.72046,47.41692]]}},{"type":"Feature","properties":{"kind":"canal","op":1},"geometry":{"type":"LineString","coordinates":[[9.72046,47.41692],[9.72031,47.41716]]}},{"type":"Feature","properties":{"kind":"canal","op":1},"geometry":{"type":"LineString","coordinates":[[9.72031,47.41716],[9.72019,47.41742]]}},{"type":"Feature","properties":{"kind":"canal","op":1},"geometry":{"type":"LineString","coordinates":[[9.72019,47.41742],[9.7201,47.41756]]}},{"type":"Feature","properties":{"kind":"canal","op":1},"geometry":{"type":"LineString","coordinates":[[9.7201,47.41756],[9.71997,47.41765]]}},{"type":"Feature","properties":{"kind":"canal","op":1},"geometry":{"type":"LineString","coordinates":[[9.71997,47.41765],[9.71978,47.41772]]}},{"type":"Feature","properties":{"kind":"canal","op":1},"geometry":{"type":"LineString","coordinates":[[9.71978,47.41772],[9.71962,47.41775]]}},{"type":"Feature","properties":{"kind":"canal","op":1},"geometry":{"type":"LineString","coordinates":[[9.71962,47.41775],[9.71937,47.4178]]}},{"type":"Feature","properties":{"kind":"canal","op":1},"geometry":{"type":"LineString","coordinates":[[9.71937,47.4178],[9.71913,47.41788]]}},{"type":"Feature","properties":{"kind":"canal","op":1},"geometry":{"type":"LineString","coordinates":[[9.71913,47.41788],[9.71891,47.41808]]}},{"type":"Feature","properties":{"kind":"canal","op":1},"geometry":{"type":"LineString","coordinates":[[9.71891,47.41808],[9.71879,47.41824]]}},{"type":"Feature","properties":{"kind":"canal","op":1},"geometry":{"type":"LineString","coordinates":[[9.71879,47.41824],[9.71874,47.41841]]}},{"type":"Feature","properties":{"kind":"canal","op":1},"geometry":{"type":"LineString","coordinates":[[9.71874,47.41841],[9.71882,47.41855]]}},{"type":"Feature","properties":{"kind":"canal","op":1},"geometry":{"type":"LineString","coordinates":[[9.71882,47.41855],[9.71891,47.41863]]}},{"type":"Feature","properties":{"kind":"canal","op":1},"geometry":{"type":"LineString","coordinates":[[9.71891,47.41863],[9.71898,47.41874]]}},{"type":"Feature","properties":{"kind":"canal","op":1},"geometry":{"type":"LineString","coordinates":[[9.71898,47.41874],[9.71896,47.41885]]}},{"type":"Feature","properties":{"kind":"canal","op":1},"geometry":{"type":"LineString","coordinates":[[9.71896,47.41885],[9.71887,47.41893]]}},{"type":"Feature","properties":{"kind":"canal","op":1},"geometry":{"type":"LineString","coordinates":[[9.71887,47.41893],[9.71872,47.41902]]}},{"type":"Feature","properties":{"kind":"canal","op":1},"geometry":{"type":"LineString","coordinates":[[9.71872,47.41902],[9.71856,47.41911]]}},{"type":"Feature","properties":{"kind":"canal","op":1},"geometry":{"type":"LineString","coordinates":[[9.71856,47.41911],[9.7183,47.41926]]}},{"type":"Feature","properties":{"kind":"canal","op":1},"geometry":{"type":"LineString","coordinates":[[9.7183,47.41926],[9.71816,47.41926]]}},{"type":"Feature","properties":{"kind":"canal","op":1},"geometry":{"type":"LineString","coordinates":[[9.71816,47.41926],[9.71781,47.41914]]}},{"type":"Feature","properties":{"kind":"canal","op":1},"geometry":{"type":"LineString","coordinates":[[9.71781,47.41914],[9.7176,47.4191]]}},{"type":"Feature","properties":{"kind":"canal","op":0.99},"geometry":{"type":"LineString","coordinates":[[9.7176,47.4191],[9.71727,47.4191]]}},{"type":"Feature","properties":{"kind":"canal","op":0.95},"geometry":{"type":"LineString","coordinates":[[9.71727,47.4191],[9.71699,47.41909]]}},{"type":"Feature","properties":{"kind":"canal","op":0.88},"geometry":{"type":"LineString","coordinates":[[9.71699,47.41909],[9.71658,47.419]]}},{"type":"Feature","properties":{"kind":"canal","op":0.76},"geometry":{"type":"LineString","coordinates":[[9.71658,47.419],[9.71622,47.41897]]}},{"type":"Feature","properties":{"kind":"canal","op":0.79},"geometry":{"type":"LineString","coordinates":[[9.71622,47.41897],[9.71567,47.419]]}},{"type":"Feature","properties":{"kind":"canal","op":0.74},"geometry":{"type":"LineString","coordinates":[[9.71567,47.419],[9.7154,47.41916]]}},{"type":"Feature","properties":{"kind":"canal","op":0.63},"geometry":{"type":"LineString","coordinates":[[9.7154,47.41916],[9.71483,47.41932]]}},{"type":"Feature","properties":{"kind":"canal","op":0.6},"geometry":{"type":"LineString","coordinates":[[9.71483,47.41932],[9.71456,47.41912]]}},{"type":"Feature","properties":{"kind":"canal","op":0.66},"geometry":{"type":"LineString","coordinates":[[9.71456,47.41912],[9.71416,47.41895]]}},{"type":"Feature","properties":{"kind":"canal","op":0.67},"geometry":{"type":"LineString","coordinates":[[9.71416,47.41895],[9.7138,47.41881]]}},{"type":"Feature","properties":{"kind":"canal","op":0.65},"geometry":{"type":"LineString","coordinates":[[9.7138,47.41881],[9.71365,47.41878]]}},{"type":"Feature","properties":{"kind":"canal","op":0.61},"geometry":{"type":"LineString","coordinates":[[9.71365,47.41878],[9.71348,47.41877]]}},{"type":"Feature","properties":{"kind":"canal","op":0.57},"geometry":{"type":"LineString","coordinates":[[9.71348,47.41877],[9.71341,47.41881]]}},{"type":"Feature","properties":{"kind":"canal","op":0.16},"geometry":{"type":"LineString","coordinates":[[9.71341,47.41881],[9.71189,47.41965]]}},{"type":"Feature","properties":{"kind":"canal","op":1},"geometry":{"type":"LineString","coordinates":[[9.7506,47.40267],[9.75041,47.40279]]}},{"type":"Feature","properties":{"kind":"canal","op":1},"geometry":{"type":"LineString","coordinates":[[9.75041,47.40279],[9.75032,47.40286]]}},{"type":"Feature","properties":{"kind":"canal","op":1},"geometry":{"type":"LineString","coordinates":[[9.75032,47.40286],[9.74938,47.40352]]}},{"type":"Feature","properties":{"kind":"canal","op":1},"geometry":{"type":"LineString","coordinates":[[9.74938,47.40352],[9.74857,47.40407]]}},{"type":"Feature","properties":{"kind":"canal","op":1},"geometry":{"type":"LineString","coordinates":[[9.74857,47.40407],[9.74845,47.40416]]}},{"type":"Feature","properties":{"kind":"canal","op":1},"geometry":{"type":"LineString","coordinates":[[9.74845,47.40416],[9.74792,47.40466]]}},{"type":"Feature","properties":{"kind":"canal","op":1},"geometry":{"type":"LineString","coordinates":[[9.74792,47.40466],[9.74729,47.405]]}},{"type":"Feature","properties":{"kind":"canal","op":1},"geometry":{"type":"LineString","coordinates":[[9.74729,47.405],[9.74669,47.40519]]}},{"type":"Feature","properties":{"kind":"canal","op":1},"geometry":{"type":"LineString","coordinates":[[9.74669,47.40519],[9.74637,47.40531]]}},{"type":"Feature","properties":{"kind":"canal","op":1},"geometry":{"type":"LineString","coordinates":[[9.74637,47.40531],[9.74593,47.40552]]}},{"type":"Feature","properties":{"kind":"canal","op":1},"geometry":{"type":"LineString","coordinates":[[9.74593,47.40552],[9.74491,47.40599]]}},{"type":"Feature","properties":{"kind":"canal","op":1},"geometry":{"type":"LineString","coordinates":[[9.74491,47.40599],[9.7431,47.40694]]}},{"type":"Feature","properties":{"kind":"canal","op":1},"geometry":{"type":"LineString","coordinates":[[9.7431,47.40694],[9.74285,47.40697]]}},{"type":"Feature","properties":{"kind":"canal","op":1},"geometry":{"type":"LineString","coordinates":[[9.74285,47.40697],[9.74168,47.40738]]}},{"type":"Feature","properties":{"kind":"canal","op":1},"geometry":{"type":"LineString","coordinates":[[9.74168,47.40738],[9.74144,47.40751]]}},{"type":"Feature","properties":{"kind":"canal","op":1},"geometry":{"type":"LineString","coordinates":[[9.74144,47.40751],[9.74097,47.40765]]}},{"type":"Feature","properties":{"kind":"canal","op":1},"geometry":{"type":"LineString","coordinates":[[9.74097,47.40765],[9.7409,47.40768]]}},{"type":"Feature","properties":{"kind":"canal","op":1},"geometry":{"type":"LineString","coordinates":[[9.7409,47.40768],[9.74077,47.40775]]}},{"type":"Feature","properties":{"kind":"canal","op":1},"geometry":{"type":"LineString","coordinates":[[9.74077,47.40775],[9.74064,47.40782]]}},{"type":"Feature","properties":{"kind":"canal","op":1},"geometry":{"type":"LineString","coordinates":[[9.74064,47.40782],[9.74046,47.40789]]}},{"type":"Feature","properties":{"kind":"canal","op":1},"geometry":{"type":"LineString","coordinates":[[9.74046,47.40789],[9.74044,47.40789]]}},{"type":"Feature","properties":{"kind":"canal","op":1},"geometry":{"type":"LineString","coordinates":[[9.74044,47.40789],[9.74027,47.40792]]}},{"type":"Feature","properties":{"kind":"canal","op":1},"geometry":{"type":"LineString","coordinates":[[9.74027,47.40792],[9.74023,47.40793]]}},{"type":"Feature","properties":{"kind":"canal","op":1},"geometry":{"type":"LineString","coordinates":[[9.74023,47.40793],[9.74009,47.40793]]}},{"type":"Feature","properties":{"kind":"canal","op":1},"geometry":{"type":"LineString","coordinates":[[9.74009,47.40793],[9.73999,47.40794]]}},{"type":"Feature","properties":{"kind":"canal","op":1},"geometry":{"type":"LineString","coordinates":[[9.73999,47.40794],[9.73991,47.40795]]}},{"type":"Feature","properties":{"kind":"canal","op":1},"geometry":{"type":"LineString","coordinates":[[9.73991,47.40795],[9.73986,47.40797]]}},{"type":"Feature","properties":{"kind":"canal","op":1},"geometry":{"type":"LineString","coordinates":[[9.73986,47.40797],[9.73923,47.40841]]}},{"type":"Feature","properties":{"kind":"canal","op":1},"geometry":{"type":"LineString","coordinates":[[9.73923,47.40841],[9.7392,47.40844]]}},{"type":"Feature","properties":{"kind":"canal","op":1},"geometry":{"type":"LineString","coordinates":[[9.73867,47.40889],[9.73859,47.40894]]}},{"type":"Feature","properties":{"kind":"canal","op":1},"geometry":{"type":"LineString","coordinates":[[9.73859,47.40894],[9.73854,47.40897]]}},{"type":"Feature","properties":{"kind":"canal","op":1},"geometry":{"type":"LineString","coordinates":[[9.73854,47.40897],[9.73792,47.40938]]}},{"type":"Feature","properties":{"kind":"canal","op":1},"geometry":{"type":"LineString","coordinates":[[9.73792,47.40938],[9.73748,47.40966]]}},{"type":"Feature","properties":{"kind":"canal","op":1},"geometry":{"type":"LineString","coordinates":[[9.73748,47.40966],[9.73722,47.40983]]}},{"type":"Feature","properties":{"kind":"canal","op":1},"geometry":{"type":"LineString","coordinates":[[9.73722,47.40983],[9.73719,47.40983]]}},{"type":"Feature","properties":{"kind":"canal","op":1},"geometry":{"type":"LineString","coordinates":[[9.73719,47.40983],[9.73715,47.40984]]}},{"type":"Feature","properties":{"kind":"canal","op":1},"geometry":{"type":"LineString","coordinates":[[9.73715,47.40984],[9.73706,47.40985]]}},{"type":"Feature","properties":{"kind":"canal","op":1},"geometry":{"type":"LineString","coordinates":[[9.73706,47.40985],[9.73691,47.40985]]}},{"type":"Feature","properties":{"kind":"canal","op":1},"geometry":{"type":"LineString","coordinates":[[9.73691,47.40985],[9.73683,47.40983]]}},{"type":"Feature","properties":{"kind":"canal","op":1},"geometry":{"type":"LineString","coordinates":[[9.73683,47.40983],[9.73674,47.40979]]}},{"type":"Feature","properties":{"kind":"canal","op":1},"geometry":{"type":"LineString","coordinates":[[9.73674,47.40979],[9.7365,47.40967]]}},{"type":"Feature","properties":{"kind":"canal","op":1},"geometry":{"type":"LineString","coordinates":[[9.7365,47.40967],[9.73619,47.4095]]}},{"type":"Feature","properties":{"kind":"canal","op":1},"geometry":{"type":"LineString","coordinates":[[9.73619,47.4095],[9.73616,47.40948]]}},{"type":"Feature","properties":{"kind":"canal","op":1},"geometry":{"type":"LineString","coordinates":[[9.73616,47.40948],[9.73614,47.40946]]}},{"type":"Feature","properties":{"kind":"canal","op":1},"geometry":{"type":"LineString","coordinates":[[9.73614,47.40946],[9.73607,47.40932]]}},{"type":"Feature","properties":{"kind":"canal","op":1},"geometry":{"type":"LineString","coordinates":[[9.73607,47.40932],[9.73593,47.40904]]}},{"type":"Feature","properties":{"kind":"canal","op":1},"geometry":{"type":"LineString","coordinates":[[9.73593,47.40904],[9.7359,47.40903]]}},{"type":"Feature","properties":{"kind":"canal","op":1},"geometry":{"type":"LineString","coordinates":[[9.7359,47.40903],[9.73581,47.40905]]}},{"type":"Feature","properties":{"kind":"canal","op":1},"geometry":{"type":"LineString","coordinates":[[9.73581,47.40905],[9.73536,47.40905]]}},{"type":"Feature","properties":{"kind":"canal","op":1},"geometry":{"type":"LineString","coordinates":[[9.75153,47.40205],[9.75142,47.40212]]}},{"type":"Feature","properties":{"kind":"canal","op":1},"geometry":{"type":"LineString","coordinates":[[9.75881,47.39762],[9.75886,47.39779]]}},{"type":"Feature","properties":{"kind":"canal","op":1},"geometry":{"type":"LineString","coordinates":[[9.75886,47.39779],[9.75887,47.3978]]}},{"type":"Feature","properties":{"kind":"canal","op":1},"geometry":{"type":"LineString","coordinates":[[9.75139,47.40214],[9.7512,47.40227]]}},{"type":"Feature","properties":{"kind":"canal","op":1},"geometry":{"type":"LineString","coordinates":[[9.75887,47.3978],[9.75895,47.39807]]}},{"type":"Feature","properties":{"kind":"canal","op":1},"geometry":{"type":"LineString","coordinates":[[9.75895,47.39807],[9.75797,47.39861]]}},{"type":"Feature","properties":{"kind":"canal","op":1},"geometry":{"type":"LineString","coordinates":[[9.75797,47.39861],[9.75674,47.39927]]}},{"type":"Feature","properties":{"kind":"canal","op":1},"geometry":{"type":"LineString","coordinates":[[9.75674,47.39927],[9.75511,47.40014]]}},{"type":"Feature","properties":{"kind":"canal","op":1},"geometry":{"type":"LineString","coordinates":[[9.75511,47.40014],[9.75373,47.40088]]}},{"type":"Feature","properties":{"kind":"canal","op":1},"geometry":{"type":"LineString","coordinates":[[9.75373,47.40088],[9.75153,47.40205]]}},{"type":"Feature","properties":{"kind":"canal","op":1},"geometry":{"type":"LineString","coordinates":[[9.7512,47.40227],[9.75116,47.4023]]}},{"type":"Feature","properties":{"kind":"canal","op":1},"geometry":{"type":"LineString","coordinates":[[9.75142,47.40212],[9.75139,47.40214]]}},{"type":"Feature","properties":{"kind":"canal","op":1},"geometry":{"type":"LineString","coordinates":[[9.75096,47.40243],[9.75081,47.40253]]}},{"type":"Feature","properties":{"kind":"canal","op":1},"geometry":{"type":"LineString","coordinates":[[9.751,47.4024],[9.75096,47.40243]]}},{"type":"Feature","properties":{"kind":"canal","op":1},"geometry":{"type":"LineString","coordinates":[[9.75078,47.40255],[9.7506,47.40267]]}},{"type":"Feature","properties":{"kind":"canal","op":1},"geometry":{"type":"LineString","coordinates":[[9.75081,47.40253],[9.75078,47.40255]]}},{"type":"Feature","properties":{"kind":"canal","op":1},"geometry":{"type":"LineString","coordinates":[[9.75116,47.4023],[9.75111,47.40234]]}},{"type":"Feature","properties":{"kind":"canal","op":1},"geometry":{"type":"LineString","coordinates":[[9.75111,47.40234],[9.751,47.4024]]}},{"type":"Feature","properties":{"kind":"canal","op":1},"geometry":{"type":"LineString","coordinates":[[9.73892,47.40869],[9.73889,47.40872]]}},{"type":"Feature","properties":{"kind":"canal","op":1},"geometry":{"type":"LineString","coordinates":[[9.73889,47.40872],[9.73867,47.40889]]}},{"type":"Feature","properties":{"kind":"canal","op":1},"geometry":{"type":"LineString","coordinates":[[9.7392,47.40844],[9.73892,47.40869]]}},{"type":"Feature","properties":{"kind":"rail","op":0.15},"geometry":{"type":"LineString","coordinates":[[9.72214,47.39218],[9.72221,47.39225]]}},{"type":"Feature","properties":{"kind":"rail","op":0.23},"geometry":{"type":"LineString","coordinates":[[9.72221,47.39225],[9.72241,47.39246]]}},{"type":"Feature","properties":{"kind":"rail","op":0.48},"geometry":{"type":"LineString","coordinates":[[9.72241,47.39246],[9.72288,47.39297]]}},{"type":"Feature","properties":{"kind":"rail","op":0.82},"geometry":{"type":"LineString","coordinates":[[9.72288,47.39297],[9.72329,47.39352]]}},{"type":"Feature","properties":{"kind":"rail","op":0.97},"geometry":{"type":"LineString","coordinates":[[9.72329,47.39352],[9.72345,47.39375]]}},{"type":"Feature","properties":{"kind":"rail","op":1},"geometry":{"type":"LineString","coordinates":[[9.72345,47.39375],[9.72362,47.39401]]}},{"type":"Feature","properties":{"kind":"rail","op":1},"geometry":{"type":"LineString","coordinates":[[9.72362,47.39401],[9.72369,47.39413]]}},{"type":"Feature","properties":{"kind":"rail","op":1},"geometry":{"type":"LineString","coordinates":[[9.72369,47.39413],[9.72389,47.39447]]}},{"type":"Feature","properties":{"kind":"rail","op":1},"geometry":{"type":"LineString","coordinates":[[9.72389,47.39447],[9.72404,47.39477]]}},{"type":"Feature","properties":{"kind":"rail","op":1},"geometry":{"type":"LineString","coordinates":[[9.72404,47.39477],[9.72417,47.39504]]}},{"type":"Feature","properties":{"kind":"rail","op":1},"geometry":{"type":"LineString","coordinates":[[9.72417,47.39504],[9.72433,47.39541]]}},{"type":"Feature","properties":{"kind":"rail","op":1},"geometry":{"type":"LineString","coordinates":[[9.72433,47.39541],[9.72454,47.39603]]}},{"type":"Feature","properties":{"kind":"rail","op":1},"geometry":{"type":"LineString","coordinates":[[9.72454,47.39603],[9.72462,47.39628]]}},{"type":"Feature","properties":{"kind":"rail","op":1},"geometry":{"type":"LineString","coordinates":[[9.72462,47.39628],[9.72469,47.39661]]}},{"type":"Feature","properties":{"kind":"rail","op":1},"geometry":{"type":"LineString","coordinates":[[9.72469,47.39661],[9.72477,47.39705]]}},{"type":"Feature","properties":{"kind":"rail","op":1},"geometry":{"type":"LineString","coordinates":[[9.72477,47.39705],[9.72481,47.39734]]}},{"type":"Feature","properties":{"kind":"rail","op":1},"geometry":{"type":"LineString","coordinates":[[9.72481,47.39734],[9.72484,47.39758]]}},{"type":"Feature","properties":{"kind":"rail","op":1},"geometry":{"type":"LineString","coordinates":[[9.72484,47.39758],[9.72487,47.39819]]}},{"type":"Feature","properties":{"kind":"rail","op":1},"geometry":{"type":"LineString","coordinates":[[9.72487,47.39819],[9.72487,47.39843]]}},{"type":"Feature","properties":{"kind":"rail","op":1},"geometry":{"type":"LineString","coordinates":[[9.72487,47.39843],[9.72487,47.39865]]}},{"type":"Feature","properties":{"kind":"rail","op":1},"geometry":{"type":"LineString","coordinates":[[9.72487,47.39865],[9.72486,47.3989]]}},{"type":"Feature","properties":{"kind":"rail","op":1},"geometry":{"type":"LineString","coordinates":[[9.72486,47.3989],[9.72483,47.39919]]}},{"type":"Feature","properties":{"kind":"rail","op":1},"geometry":{"type":"LineString","coordinates":[[9.72483,47.39919],[9.7248,47.39944]]}},{"type":"Feature","properties":{"kind":"rail","op":1},"geometry":{"type":"LineString","coordinates":[[9.7248,47.39944],[9.72475,47.39981]]}},{"type":"Feature","properties":{"kind":"rail","op":1},"geometry":{"type":"LineString","coordinates":[[9.72475,47.39981],[9.72467,47.40023]]}},{"type":"Feature","properties":{"kind":"rail","op":1},"geometry":{"type":"LineString","coordinates":[[9.72467,47.40023],[9.72401,47.40319]]}},{"type":"Feature","properties":{"kind":"rail","op":1},"geometry":{"type":"LineString","coordinates":[[9.72401,47.40319],[9.72398,47.40334]]}},{"type":"Feature","properties":{"kind":"rail","op":1},"geometry":{"type":"LineString","coordinates":[[9.72343,47.41011],[9.72358,47.4104]]}},{"type":"Feature","properties":{"kind":"rail","op":1},"geometry":{"type":"LineString","coordinates":[[9.72327,47.4065],[9.72316,47.40703]]}},{"type":"Feature","properties":{"kind":"rail","op":1},"geometry":{"type":"LineString","coordinates":[[9.72316,47.40703],[9.72306,47.40755]]}},{"type":"Feature","properties":{"kind":"rail","op":1},"geometry":{"type":"LineString","coordinates":[[9.72306,47.40755],[9.72303,47.40777]]}},{"type":"Feature","properties":{"kind":"rail","op":1},"geometry":{"type":"LineString","coordinates":[[9.72303,47.40777],[9.72301,47.40807]]}},{"type":"Feature","properties":{"kind":"rail","op":1},"geometry":{"type":"LineString","coordinates":[[9.72301,47.40807],[9.72301,47.40833]]}},{"type":"Feature","properties":{"kind":"rail","op":1},"geometry":{"type":"LineString","coordinates":[[9.72301,47.40833],[9.72303,47.40861]]}},{"type":"Feature","properties":{"kind":"rail","op":1},"geometry":{"type":"LineString","coordinates":[[9.72303,47.40861],[9.72306,47.4089]]}},{"type":"Feature","properties":{"kind":"rail","op":1},"geometry":{"type":"LineString","coordinates":[[9.72306,47.4089],[9.7231,47.40915]]}},{"type":"Feature","properties":{"kind":"rail","op":1},"geometry":{"type":"LineString","coordinates":[[9.7231,47.40915],[9.72318,47.4094]]}},{"type":"Feature","properties":{"kind":"rail","op":1},"geometry":{"type":"LineString","coordinates":[[9.72318,47.4094],[9.72326,47.40967]]}},{"type":"Feature","properties":{"kind":"rail","op":1},"geometry":{"type":"LineString","coordinates":[[9.72326,47.40967],[9.72343,47.41011]]}},{"type":"Feature","properties":{"kind":"rail","op":1},"geometry":{"type":"LineString","coordinates":[[9.72697,47.41335],[9.72708,47.4134]]}},{"type":"Feature","properties":{"kind":"rail","op":1},"geometry":{"type":"LineString","coordinates":[[9.72708,47.4134],[9.72743,47.41356]]}},{"type":"Feature","properties":{"kind":"rail","op":1},"geometry":{"type":"LineString","coordinates":[[9.72743,47.41356],[9.72778,47.4137]]}},{"type":"Feature","properties":{"kind":"rail","op":1},"geometry":{"type":"LineString","coordinates":[[9.72778,47.4137],[9.72833,47.41391]]}},{"type":"Feature","properties":{"kind":"rail","op":1},"geometry":{"type":"LineString","coordinates":[[9.72398,47.40334],[9.72395,47.40346]]}},{"type":"Feature","properties":{"kind":"rail","op":0.06},"geometry":{"type":"LineString","coordinates":[[9.72189,47.39195],[9.72203,47.39207]]}},{"type":"Feature","properties":{"kind":"rail","op":1},"geometry":{"type":"LineString","coordinates":[[9.72833,47.41391],[9.72932,47.41427]]}},{"type":"Feature","properties":{"kind":"rail","op":0.54},"geometry":{"type":"LineString","coordinates":[[9.7489,47.43214],[9.74906,47.4324]]}},{"type":"Feature","properties":{"kind":"rail","op":1},"geometry":{"type":"LineString","coordinates":[[9.74784,47.42583],[9.74785,47.42604]]}},{"type":"Feature","properties":{"kind":"rail","op":1},"geometry":{"type":"LineString","coordinates":[[9.74785,47.42604],[9.74785,47.42621]]}},{"type":"Feature","properties":{"kind":"rail","op":1},"geometry":{"type":"LineString","coordinates":[[9.74785,47.42621],[9.74787,47.42651]]}},{"type":"Feature","properties":{"kind":"rail","op":1},"geometry":{"type":"LineString","coordinates":[[9.74787,47.42651],[9.74789,47.42699]]}},{"type":"Feature","properties":{"kind":"rail","op":1},"geometry":{"type":"LineString","coordinates":[[9.74789,47.42699],[9.7479,47.42759]]}},{"type":"Feature","properties":{"kind":"rail","op":1},"geometry":{"type":"LineString","coordinates":[[9.7479,47.42759],[9.74792,47.42783]]}},{"type":"Feature","properties":{"kind":"rail","op":1},"geometry":{"type":"LineString","coordinates":[[9.74792,47.42783],[9.74793,47.4281]]}},{"type":"Feature","properties":{"kind":"rail","op":1},"geometry":{"type":"LineString","coordinates":[[9.74793,47.4281],[9.74793,47.42817]]}},{"type":"Feature","properties":{"kind":"rail","op":1},"geometry":{"type":"LineString","coordinates":[[9.74793,47.42817],[9.74794,47.42841]]}},{"type":"Feature","properties":{"kind":"rail","op":1},"geometry":{"type":"LineString","coordinates":[[9.74794,47.42841],[9.74795,47.42863]]}},{"type":"Feature","properties":{"kind":"rail","op":1},"geometry":{"type":"LineString","coordinates":[[9.74795,47.42863],[9.74796,47.42872]]}},{"type":"Feature","properties":{"kind":"rail","op":1},"geometry":{"type":"LineString","coordinates":[[9.74796,47.42872],[9.74798,47.429]]}},{"type":"Feature","properties":{"kind":"rail","op":1},"geometry":{"type":"LineString","coordinates":[[9.74798,47.429],[9.74798,47.42907]]}},{"type":"Feature","properties":{"kind":"rail","op":1},"geometry":{"type":"LineString","coordinates":[[9.74798,47.42907],[9.748,47.42927]]}},{"type":"Feature","properties":{"kind":"rail","op":1},"geometry":{"type":"LineString","coordinates":[[9.748,47.42927],[9.74801,47.42943]]}},{"type":"Feature","properties":{"kind":"rail","op":1},"geometry":{"type":"LineString","coordinates":[[9.74801,47.42943],[9.74803,47.42953]]}},{"type":"Feature","properties":{"kind":"rail","op":1},"geometry":{"type":"LineString","coordinates":[[9.74803,47.42953],[9.74804,47.42961]]}},{"type":"Feature","properties":{"kind":"rail","op":1},"geometry":{"type":"LineString","coordinates":[[9.74804,47.42961],[9.74809,47.42994]]}},{"type":"Feature","properties":{"kind":"rail","op":1},"geometry":{"type":"LineString","coordinates":[[9.74809,47.42994],[9.74815,47.43024]]}},{"type":"Feature","properties":{"kind":"rail","op":1},"geometry":{"type":"LineString","coordinates":[[9.74815,47.43024],[9.7482,47.43044]]}},{"type":"Feature","properties":{"kind":"rail","op":1},"geometry":{"type":"LineString","coordinates":[[9.7482,47.43044],[9.74827,47.43071]]}},{"type":"Feature","properties":{"kind":"rail","op":1},"geometry":{"type":"LineString","coordinates":[[9.74827,47.43071],[9.74836,47.43097]]}},{"type":"Feature","properties":{"kind":"rail","op":1},"geometry":{"type":"LineString","coordinates":[[9.74836,47.43097],[9.74844,47.43118]]}},{"type":"Feature","properties":{"kind":"rail","op":0.99},"geometry":{"type":"LineString","coordinates":[[9.74844,47.43118],[9.74854,47.43141]]}},{"type":"Feature","properties":{"kind":"rail","op":0.94},"geometry":{"type":"LineString","coordinates":[[9.74854,47.43141],[9.74864,47.43164]]}},{"type":"Feature","properties":{"kind":"rail","op":0.85},"geometry":{"type":"LineString","coordinates":[[9.74864,47.43164],[9.74875,47.43186]]}},{"type":"Feature","properties":{"kind":"rail","op":0.71},"geometry":{"type":"LineString","coordinates":[[9.74875,47.43186],[9.7489,47.43214]]}},{"type":"Feature","properties":{"kind":"rail","op":1},"geometry":{"type":"LineString","coordinates":[[9.74563,47.42109],[9.74584,47.4213]]}},{"type":"Feature","properties":{"kind":"rail","op":1},"geometry":{"type":"LineString","coordinates":[[9.74584,47.4213],[9.74595,47.42141]]}},{"type":"Feature","properties":{"kind":"rail","op":1},"geometry":{"type":"LineString","coordinates":[[9.7462,47.4217],[9.74629,47.4218]]}},{"type":"Feature","properties":{"kind":"rail","op":1},"geometry":{"type":"LineString","coordinates":[[9.72703,47.41331],[9.72712,47.41335]]}},{"type":"Feature","properties":{"kind":"rail","op":1},"geometry":{"type":"LineString","coordinates":[[9.72712,47.41335],[9.72746,47.4135]]}},{"type":"Feature","properties":{"kind":"rail","op":1},"geometry":{"type":"LineString","coordinates":[[9.72746,47.4135],[9.72783,47.41364]]}},{"type":"Feature","properties":{"kind":"rail","op":1},"geometry":{"type":"LineString","coordinates":[[9.72783,47.41364],[9.72838,47.41385]]}},{"type":"Feature","properties":{"kind":"rail","op":1},"geometry":{"type":"LineString","coordinates":[[9.72334,47.40651],[9.72319,47.40718]]}},{"type":"Feature","properties":{"kind":"rail","op":1},"geometry":{"type":"LineString","coordinates":[[9.72319,47.40718],[9.72313,47.40755]]}},{"type":"Feature","properties":{"kind":"rail","op":1},"geometry":{"type":"LineString","coordinates":[[9.72313,47.40755],[9.7231,47.40777]]}},{"type":"Feature","properties":{"kind":"rail","op":1},"geometry":{"type":"LineString","coordinates":[[9.7231,47.40777],[9.72308,47.40807]]}},{"type":"Feature","properties":{"kind":"rail","op":1},"geometry":{"type":"LineString","coordinates":[[9.72308,47.40807],[9.72308,47.40833]]}},{"type":"Feature","properties":{"kind":"rail","op":1},"geometry":{"type":"LineString","coordinates":[[9.72308,47.40833],[9.72309,47.40861]]}},{"type":"Feature","properties":{"kind":"rail","op":1},"geometry":{"type":"LineString","coordinates":[[9.72309,47.40861],[9.72313,47.40889]]}},{"type":"Feature","properties":{"kind":"rail","op":1},"geometry":{"type":"LineString","coordinates":[[9.72313,47.40889],[9.72318,47.40914]]}},{"type":"Feature","properties":{"kind":"rail","op":1},"geometry":{"type":"LineString","coordinates":[[9.72318,47.40914],[9.72324,47.40939]]}},{"type":"Feature","properties":{"kind":"rail","op":1},"geometry":{"type":"LineString","coordinates":[[9.72324,47.40939],[9.72333,47.40966]]}},{"type":"Feature","properties":{"kind":"rail","op":1},"geometry":{"type":"LineString","coordinates":[[9.72333,47.40966],[9.7235,47.41009]]}},{"type":"Feature","properties":{"kind":"rail","op":1},"geometry":{"type":"LineString","coordinates":[[9.73189,47.41511],[9.73261,47.41536]]}},{"type":"Feature","properties":{"kind":"rail","op":1},"geometry":{"type":"LineString","coordinates":[[9.73261,47.41536],[9.73348,47.41568]]}},{"type":"Feature","properties":{"kind":"rail","op":0.14},"geometry":{"type":"LineString","coordinates":[[9.72219,47.39215],[9.72226,47.39222]]}},{"type":"Feature","properties":{"kind":"rail","op":0.22},"geometry":{"type":"LineString","coordinates":[[9.72226,47.39222],[9.72246,47.39243]]}},{"type":"Feature","properties":{"kind":"rail","op":0.46},"geometry":{"type":"LineString","coordinates":[[9.72246,47.39243],[9.72291,47.39292]]}},{"type":"Feature","properties":{"kind":"rail","op":0.81},"geometry":{"type":"LineString","coordinates":[[9.72291,47.39292],[9.72335,47.3935]]}},{"type":"Feature","properties":{"kind":"rail","op":0.97},"geometry":{"type":"LineString","coordinates":[[9.72335,47.3935],[9.72351,47.39373]]}},{"type":"Feature","properties":{"kind":"rail","op":1},"geometry":{"type":"LineString","coordinates":[[9.72351,47.39373],[9.72375,47.39411]]}},{"type":"Feature","properties":{"kind":"rail","op":1},"geometry":{"type":"LineString","coordinates":[[9.72375,47.39411],[9.72395,47.39445]]}},{"type":"Feature","properties":{"kind":"rail","op":1},"geometry":{"type":"LineString","coordinates":[[9.72395,47.39445],[9.72397,47.39449]]}},{"type":"Feature","properties":{"kind":"rail","op":1},"geometry":{"type":"LineString","coordinates":[[9.72397,47.39449],[9.7241,47.39475]]}},{"type":"Feature","properties":{"kind":"rail","op":1},"geometry":{"type":"LineString","coordinates":[[9.7241,47.39475],[9.72423,47.39501]]}},{"type":"Feature","properties":{"kind":"rail","op":1},"geometry":{"type":"LineString","coordinates":[[9.72423,47.39501],[9.72439,47.3954]]}},{"type":"Feature","properties":{"kind":"rail","op":1},"geometry":{"type":"LineString","coordinates":[[9.72439,47.3954],[9.7246,47.39602]]}},{"type":"Feature","properties":{"kind":"rail","op":1},"geometry":{"type":"LineString","coordinates":[[9.7246,47.39602],[9.72475,47.3966]]}},{"type":"Feature","properties":{"kind":"rail","op":1},"geometry":{"type":"LineString","coordinates":[[9.72475,47.3966],[9.72477,47.39672]]}},{"type":"Feature","properties":{"kind":"rail","op":1},"geometry":{"type":"LineString","coordinates":[[9.72477,47.39672],[9.72483,47.39705]]}},{"type":"Feature","properties":{"kind":"rail","op":1},"geometry":{"type":"LineString","coordinates":[[9.72483,47.39705],[9.72487,47.39732]]}},{"type":"Feature","properties":{"kind":"rail","op":1},"geometry":{"type":"LineString","coordinates":[[9.72487,47.39732],[9.7249,47.39757]]}},{"type":"Feature","properties":{"kind":"rail","op":1},"geometry":{"type":"LineString","coordinates":[[9.7249,47.39757],[9.72493,47.39818]]}},{"type":"Feature","properties":{"kind":"rail","op":1},"geometry":{"type":"LineString","coordinates":[[9.72493,47.39818],[9.72493,47.39843]]}},{"type":"Feature","properties":{"kind":"rail","op":1},"geometry":{"type":"LineString","coordinates":[[9.72493,47.39843],[9.72493,47.39866]]}},{"type":"Feature","properties":{"kind":"rail","op":1},"geometry":{"type":"LineString","coordinates":[[9.72493,47.39866],[9.72492,47.3989]]}},{"type":"Feature","properties":{"kind":"rail","op":1},"geometry":{"type":"LineString","coordinates":[[9.72492,47.3989],[9.7249,47.39919]]}},{"type":"Feature","properties":{"kind":"rail","op":1},"geometry":{"type":"LineString","coordinates":[[9.7249,47.39919],[9.72487,47.39944]]}},{"type":"Feature","properties":{"kind":"rail","op":1},"geometry":{"type":"LineString","coordinates":[[9.72487,47.39944],[9.72482,47.39977]]}},{"type":"Feature","properties":{"kind":"rail","op":1},"geometry":{"type":"LineString","coordinates":[[9.72482,47.39977],[9.72478,47.40001]]}},{"type":"Feature","properties":{"kind":"rail","op":1},"geometry":{"type":"LineString","coordinates":[[9.72478,47.40001],[9.72474,47.40024]]}},{"type":"Feature","properties":{"kind":"rail","op":1},"geometry":{"type":"LineString","coordinates":[[9.72474,47.40024],[9.72408,47.4032]]}},{"type":"Feature","properties":{"kind":"rail","op":1},"geometry":{"type":"LineString","coordinates":[[9.72408,47.4032],[9.72404,47.40334]]}},{"type":"Feature","properties":{"kind":"rail","op":0.05},"geometry":{"type":"LineString","coordinates":[[9.72192,47.3919],[9.72206,47.39203]]}},{"type":"Feature","properties":{"kind":"rail","op":1},"geometry":{"type":"LineString","coordinates":[[9.7235,47.41009],[9.72365,47.41038]]}},{"type":"Feature","properties":{"kind":"rail","op":1},"geometry":{"type":"LineString","coordinates":[[9.74626,47.42167],[9.74634,47.42178]]}},{"type":"Feature","properties":{"kind":"rail","op":1},"geometry":{"type":"LineString","coordinates":[[9.72404,47.40334],[9.72402,47.40347]]}},{"type":"Feature","properties":{"kind":"rail","op":1},"geometry":{"type":"LineString","coordinates":[[9.72932,47.41419],[9.72937,47.41421]]}},{"type":"Feature","properties":{"kind":"rail","op":1},"geometry":{"type":"LineString","coordinates":[[9.74567,47.42106],[9.74589,47.42128]]}},{"type":"Feature","properties":{"kind":"rail","op":1},"geometry":{"type":"LineString","coordinates":[[9.74589,47.42128],[9.746,47.42139]]}},{"type":"Feature","properties":{"kind":"rail","op":1},"geometry":{"type":"LineString","coordinates":[[9.73178,47.41514],[9.73227,47.4153]]}},{"type":"Feature","properties":{"kind":"rail","op":1},"geometry":{"type":"LineString","coordinates":[[9.73227,47.4153],[9.73345,47.41572]]}},{"type":"Feature","properties":{"kind":"rail","op":0.54},"geometry":{"type":"LineString","coordinates":[[9.74884,47.43215],[9.749,47.43242]]}},{"type":"Feature","properties":{"kind":"rail","op":1},"geometry":{"type":"LineString","coordinates":[[9.74777,47.42583],[9.74778,47.42593]]}},{"type":"Feature","properties":{"kind":"rail","op":1},"geometry":{"type":"LineString","coordinates":[[9.74778,47.42593],[9.74779,47.42631]]}},{"type":"Feature","properties":{"kind":"rail","op":1},"geometry":{"type":"LineString","coordinates":[[9.74779,47.42631],[9.74781,47.42653]]}},{"type":"Feature","properties":{"kind":"rail","op":1},"geometry":{"type":"LineString","coordinates":[[9.74781,47.42653],[9.74781,47.42677]]}},{"type":"Feature","properties":{"kind":"rail","op":1},"geometry":{"type":"LineString","coordinates":[[9.74781,47.42677],[9.74784,47.42743]]}},{"type":"Feature","properties":{"kind":"rail","op":1},"geometry":{"type":"LineString","coordinates":[[9.74784,47.42743],[9.74786,47.42791]]}},{"type":"Feature","properties":{"kind":"rail","op":1},"geometry":{"type":"LineString","coordinates":[[9.74786,47.42791],[9.74788,47.42847]]}},{"type":"Feature","properties":{"kind":"rail","op":1},"geometry":{"type":"LineString","coordinates":[[9.74788,47.42847],[9.7479,47.42891]]}},{"type":"Feature","properties":{"kind":"rail","op":1},"geometry":{"type":"LineString","coordinates":[[9.7479,47.42891],[9.74794,47.42933]]}},{"type":"Feature","properties":{"kind":"rail","op":1},"geometry":{"type":"LineString","coordinates":[[9.74794,47.42933],[9.74795,47.42943]]}},{"type":"Feature","properties":{"kind":"rail","op":1},"geometry":{"type":"LineString","coordinates":[[9.74795,47.42943],[9.74796,47.42955]]}},{"type":"Feature","properties":{"kind":"rail","op":1},"geometry":{"type":"LineString","coordinates":[[9.74796,47.42955],[9.74799,47.42979]]}},{"type":"Feature","properties":{"kind":"rail","op":1},"geometry":{"type":"LineString","coordinates":[[9.74799,47.42979],[9.74804,47.43006]]}},{"type":"Feature","properties":{"kind":"rail","op":1},"geometry":{"type":"LineString","coordinates":[[9.74804,47.43006],[9.74811,47.43033]]}},{"type":"Feature","properties":{"kind":"rail","op":1},"geometry":{"type":"LineString","coordinates":[[9.74811,47.43033],[9.74817,47.43058]]}},{"type":"Feature","properties":{"kind":"rail","op":1},"geometry":{"type":"LineString","coordinates":[[9.74817,47.43058],[9.74826,47.43089]]}},{"type":"Feature","properties":{"kind":"rail","op":1},"geometry":{"type":"LineString","coordinates":[[9.74826,47.43089],[9.7483,47.43099]]}},{"type":"Feature","properties":{"kind":"rail","op":1},"geometry":{"type":"LineString","coordinates":[[9.7483,47.43099],[9.74836,47.43115]]}},{"type":"Feature","properties":{"kind":"rail","op":0.99},"geometry":{"type":"LineString","coordinates":[[9.74836,47.43115],[9.74847,47.43142]]}},{"type":"Feature","properties":{"kind":"rail","op":0.93},"geometry":{"type":"LineString","coordinates":[[9.74847,47.43142],[9.74859,47.43168]]}},{"type":"Feature","properties":{"kind":"rail","op":0.83},"geometry":{"type":"LineString","coordinates":[[9.74859,47.43168],[9.74871,47.4319]]}},{"type":"Feature","properties":{"kind":"rail","op":0.7},"geometry":{"type":"LineString","coordinates":[[9.74871,47.4319],[9.74884,47.43215]]}},{"type":"Feature","properties":{"kind":"rail","op":1},"geometry":{"type":"LineString","coordinates":[[9.74439,47.42005],[9.74457,47.42017]]}},{"type":"Feature","properties":{"kind":"rail","op":1},"geometry":{"type":"LineString","coordinates":[[9.74457,47.42017],[9.74489,47.4204]]}},{"type":"Feature","properties":{"kind":"rail","op":1},"geometry":{"type":"LineString","coordinates":[[9.74489,47.4204],[9.74514,47.42059]]}},{"type":"Feature","properties":{"kind":"rail","op":1},"geometry":{"type":"LineString","coordinates":[[9.74514,47.42059],[9.74524,47.42068]]}},{"type":"Feature","properties":{"kind":"rail","op":1},"geometry":{"type":"LineString","coordinates":[[9.74706,47.42281],[9.7471,47.42288]]}},{"type":"Feature","properties":{"kind":"rail","op":1},"geometry":{"type":"LineString","coordinates":[[9.7471,47.42288],[9.74719,47.42304]]}},{"type":"Feature","properties":{"kind":"rail","op":1},"geometry":{"type":"LineString","coordinates":[[9.74719,47.42304],[9.74729,47.42325]]}},{"type":"Feature","properties":{"kind":"rail","op":1},"geometry":{"type":"LineString","coordinates":[[9.74729,47.42325],[9.74739,47.42348]]}},{"type":"Feature","properties":{"kind":"rail","op":1},"geometry":{"type":"LineString","coordinates":[[9.74739,47.42348],[9.74749,47.42375]]}},{"type":"Feature","properties":{"kind":"rail","op":1},"geometry":{"type":"LineString","coordinates":[[9.74749,47.42375],[9.74759,47.42405]]}},{"type":"Feature","properties":{"kind":"rail","op":1},"geometry":{"type":"LineString","coordinates":[[9.74759,47.42405],[9.74765,47.42426]]}},{"type":"Feature","properties":{"kind":"rail","op":1},"geometry":{"type":"LineString","coordinates":[[9.74765,47.42426],[9.74766,47.42434]]}},{"type":"Feature","properties":{"kind":"rail","op":1},"geometry":{"type":"LineString","coordinates":[[9.74766,47.42434],[9.74773,47.42462]]}},{"type":"Feature","properties":{"kind":"rail","op":1},"geometry":{"type":"LineString","coordinates":[[9.74773,47.42462],[9.74774,47.42472]]}},{"type":"Feature","properties":{"kind":"rail","op":1},"geometry":{"type":"LineString","coordinates":[[9.74774,47.42472],[9.74779,47.42498]]}},{"type":"Feature","properties":{"kind":"rail","op":1},"geometry":{"type":"LineString","coordinates":[[9.74779,47.42498],[9.74779,47.42508]]}},{"type":"Feature","properties":{"kind":"rail","op":1},"geometry":{"type":"LineString","coordinates":[[9.74779,47.42508],[9.74781,47.42529]]}},{"type":"Feature","properties":{"kind":"rail","op":1},"geometry":{"type":"LineString","coordinates":[[9.74781,47.42529],[9.74783,47.42552]]}},{"type":"Feature","properties":{"kind":"rail","op":1},"geometry":{"type":"LineString","coordinates":[[9.74783,47.42552],[9.74784,47.42576]]}},{"type":"Feature","properties":{"kind":"rail","op":1},"geometry":{"type":"LineString","coordinates":[[9.74784,47.42576],[9.74784,47.42583]]}},{"type":"Feature","properties":{"kind":"rail","op":1},"geometry":{"type":"LineString","coordinates":[[9.747,47.42283],[9.74704,47.42289]]}},{"type":"Feature","properties":{"kind":"rail","op":1},"geometry":{"type":"LineString","coordinates":[[9.74704,47.42289],[9.74713,47.42306]]}},{"type":"Feature","properties":{"kind":"rail","op":1},"geometry":{"type":"LineString","coordinates":[[9.74713,47.42306],[9.74723,47.42326]]}},{"type":"Feature","properties":{"kind":"rail","op":1},"geometry":{"type":"LineString","coordinates":[[9.74723,47.42326],[9.74733,47.42351]]}},{"type":"Feature","properties":{"kind":"rail","op":1},"geometry":{"type":"LineString","coordinates":[[9.74733,47.42351],[9.74743,47.42376]]}},{"type":"Feature","properties":{"kind":"rail","op":1},"geometry":{"type":"LineString","coordinates":[[9.74743,47.42376],[9.74752,47.42406]]}},{"type":"Feature","properties":{"kind":"rail","op":1},"geometry":{"type":"LineString","coordinates":[[9.74752,47.42406],[9.74768,47.42471]]}},{"type":"Feature","properties":{"kind":"rail","op":1},"geometry":{"type":"LineString","coordinates":[[9.74768,47.42471],[9.74774,47.42521]]}},{"type":"Feature","properties":{"kind":"rail","op":1},"geometry":{"type":"LineString","coordinates":[[9.74774,47.42521],[9.74777,47.42583]]}},{"type":"Feature","properties":{"kind":"rail","op":1},"geometry":{"type":"LineString","coordinates":[[9.73495,47.41621],[9.73512,47.41627]]}},{"type":"Feature","properties":{"kind":"rail","op":1},"geometry":{"type":"LineString","coordinates":[[9.73512,47.41627],[9.73629,47.41669]]}},{"type":"Feature","properties":{"kind":"rail","op":1},"geometry":{"type":"LineString","coordinates":[[9.73629,47.41669],[9.73864,47.41755]]}},{"type":"Feature","properties":{"kind":"rail","op":1},"geometry":{"type":"LineString","coordinates":[[9.73864,47.41755],[9.74099,47.41841]]}},{"type":"Feature","properties":{"kind":"rail","op":1},"geometry":{"type":"LineString","coordinates":[[9.74099,47.41841],[9.74132,47.41854]]}},{"type":"Feature","properties":{"kind":"rail","op":1},"geometry":{"type":"LineString","coordinates":[[9.74132,47.41854],[9.74215,47.41887]]}},{"type":"Feature","properties":{"kind":"rail","op":1},"geometry":{"type":"LineString","coordinates":[[9.74215,47.41887],[9.74228,47.41893]]}},{"type":"Feature","properties":{"kind":"rail","op":1},"geometry":{"type":"LineString","coordinates":[[9.74332,47.41948],[9.74346,47.41955]]}},{"type":"Feature","properties":{"kind":"rail","op":1},"geometry":{"type":"LineString","coordinates":[[9.74346,47.41955],[9.74362,47.41964]]}},{"type":"Feature","properties":{"kind":"rail","op":1},"geometry":{"type":"LineString","coordinates":[[9.74362,47.41964],[9.74391,47.41981]]}},{"type":"Feature","properties":{"kind":"rail","op":1},"geometry":{"type":"LineString","coordinates":[[9.74391,47.41981],[9.74427,47.42003]]}},{"type":"Feature","properties":{"kind":"rail","op":1},"geometry":{"type":"LineString","coordinates":[[9.74427,47.42003],[9.74454,47.42021]]}},{"type":"Feature","properties":{"kind":"rail","op":1},"geometry":{"type":"LineString","coordinates":[[9.74454,47.42021],[9.7448,47.4204]]}},{"type":"Feature","properties":{"kind":"rail","op":1},"geometry":{"type":"LineString","coordinates":[[9.7448,47.4204],[9.74501,47.42056]]}},{"type":"Feature","properties":{"kind":"rail","op":1},"geometry":{"type":"LineString","coordinates":[[9.74501,47.42056],[9.74535,47.42084]]}},{"type":"Feature","properties":{"kind":"rail","op":1},"geometry":{"type":"LineString","coordinates":[[9.74535,47.42084],[9.7455,47.42097]]}},{"type":"Feature","properties":{"kind":"rail","op":1},"geometry":{"type":"LineString","coordinates":[[9.73492,47.41625],[9.73509,47.41631]]}},{"type":"Feature","properties":{"kind":"rail","op":1},"geometry":{"type":"LineString","coordinates":[[9.73509,47.41631],[9.73861,47.41759]]}},{"type":"Feature","properties":{"kind":"rail","op":1},"geometry":{"type":"LineString","coordinates":[[9.73861,47.41759],[9.74097,47.41845]]}},{"type":"Feature","properties":{"kind":"rail","op":1},"geometry":{"type":"LineString","coordinates":[[9.74097,47.41845],[9.74128,47.41857]]}},{"type":"Feature","properties":{"kind":"rail","op":1},"geometry":{"type":"LineString","coordinates":[[9.74128,47.41857],[9.74171,47.41874]]}},{"type":"Feature","properties":{"kind":"rail","op":1},"geometry":{"type":"LineString","coordinates":[[9.74171,47.41874],[9.74212,47.41891]]}},{"type":"Feature","properties":{"kind":"rail","op":1},"geometry":{"type":"LineString","coordinates":[[9.74212,47.41891],[9.74225,47.41897]]}},{"type":"Feature","properties":{"kind":"rail","op":1},"geometry":{"type":"LineString","coordinates":[[9.72365,47.41038],[9.72382,47.41066]]}},{"type":"Feature","properties":{"kind":"rail","op":1},"geometry":{"type":"LineString","coordinates":[[9.72382,47.41066],[9.72389,47.41077]]}},{"type":"Feature","properties":{"kind":"rail","op":1},"geometry":{"type":"LineString","coordinates":[[9.72389,47.41077],[9.72405,47.41099]]}},{"type":"Feature","properties":{"kind":"rail","op":1},"geometry":{"type":"LineString","coordinates":[[9.72358,47.4104],[9.72376,47.41067]]}},{"type":"Feature","properties":{"kind":"rail","op":1},"geometry":{"type":"LineString","coordinates":[[9.72376,47.41067],[9.72385,47.41082]]}},{"type":"Feature","properties":{"kind":"rail","op":1},"geometry":{"type":"LineString","coordinates":[[9.72385,47.41082],[9.72398,47.41101]]}},{"type":"Feature","properties":{"kind":"rail","op":1},"geometry":{"type":"LineString","coordinates":[[9.72395,47.40346],[9.72389,47.40374]]}},{"type":"Feature","properties":{"kind":"rail","op":1},"geometry":{"type":"LineString","coordinates":[[9.72389,47.40374],[9.72327,47.4065]]}},{"type":"Feature","properties":{"kind":"rail","op":1},"geometry":{"type":"LineString","coordinates":[[9.72402,47.40347],[9.72395,47.40375]]}},{"type":"Feature","properties":{"kind":"rail","op":1},"geometry":{"type":"LineString","coordinates":[[9.72395,47.40375],[9.72334,47.40651]]}},{"type":"Feature","properties":{"kind":"rail","op":1},"geometry":{"type":"LineString","coordinates":[[9.74306,47.41935],[9.74312,47.41937]]}},{"type":"Feature","properties":{"kind":"rail","op":1},"geometry":{"type":"LineString","coordinates":[[9.74306,47.41929],[9.74333,47.41943]]}},{"type":"Feature","properties":{"kind":"rail","op":1},"geometry":{"type":"LineString","coordinates":[[9.74251,47.41903],[9.74306,47.41929]]}},{"type":"Feature","properties":{"kind":"rail","op":1},"geometry":{"type":"LineString","coordinates":[[9.72937,47.41421],[9.72941,47.41422]]}},{"type":"Feature","properties":{"kind":"rail","op":1},"geometry":{"type":"LineString","coordinates":[[9.7425,47.41908],[9.74306,47.41935]]}},{"type":"Feature","properties":{"kind":"rail","op":1},"geometry":{"type":"LineString","coordinates":[[9.72993,47.41449],[9.73074,47.41477]]}},{"type":"Feature","properties":{"kind":"rail","op":1},"geometry":{"type":"LineString","coordinates":[[9.73074,47.41477],[9.73129,47.41497]]}},{"type":"Feature","properties":{"kind":"rail","op":1},"geometry":{"type":"LineString","coordinates":[[9.74333,47.41943],[9.74346,47.41949]]}},{"type":"Feature","properties":{"kind":"rail","op":1},"geometry":{"type":"LineString","coordinates":[[9.74346,47.41949],[9.74372,47.41964]]}},{"type":"Feature","properties":{"kind":"rail","op":1},"geometry":{"type":"LineString","coordinates":[[9.74372,47.41964],[9.74411,47.41987]]}},{"type":"Feature","properties":{"kind":"rail","op":1},"geometry":{"type":"LineString","coordinates":[[9.74411,47.41987],[9.74439,47.42005]]}},{"type":"Feature","properties":{"kind":"rail","op":1},"geometry":{"type":"LineString","coordinates":[[9.72405,47.41099],[9.72419,47.41117]]}},{"type":"Feature","properties":{"kind":"rail","op":1},"geometry":{"type":"LineString","coordinates":[[9.72419,47.41117],[9.72427,47.41128]]}},{"type":"Feature","properties":{"kind":"rail","op":1},"geometry":{"type":"LineString","coordinates":[[9.72427,47.41128],[9.72439,47.41142]]}},{"type":"Feature","properties":{"kind":"rail","op":1},"geometry":{"type":"LineString","coordinates":[[9.72439,47.41142],[9.72445,47.41148]]}},{"type":"Feature","properties":{"kind":"rail","op":1},"geometry":{"type":"LineString","coordinates":[[9.72445,47.41148],[9.72453,47.41157]]}},{"type":"Feature","properties":{"kind":"rail","op":1},"geometry":{"type":"LineString","coordinates":[[9.72453,47.41157],[9.72478,47.41181]]}},{"type":"Feature","properties":{"kind":"rail","op":1},"geometry":{"type":"LineString","coordinates":[[9.72478,47.41181],[9.72504,47.41205]]}},{"type":"Feature","properties":{"kind":"rail","op":1},"geometry":{"type":"LineString","coordinates":[[9.72504,47.41205],[9.72533,47.41229]]}},{"type":"Feature","properties":{"kind":"rail","op":1},"geometry":{"type":"LineString","coordinates":[[9.72533,47.41229],[9.72562,47.4125]]}},{"type":"Feature","properties":{"kind":"rail","op":1},"geometry":{"type":"LineString","coordinates":[[9.72562,47.4125],[9.72571,47.41256]]}},{"type":"Feature","properties":{"kind":"rail","op":1},"geometry":{"type":"LineString","coordinates":[[9.72398,47.41101],[9.72421,47.41129]]}},{"type":"Feature","properties":{"kind":"rail","op":1},"geometry":{"type":"LineString","coordinates":[[9.72421,47.41129],[9.72434,47.41144]]}},{"type":"Feature","properties":{"kind":"rail","op":1},"geometry":{"type":"LineString","coordinates":[[9.72434,47.41144],[9.72439,47.4115]]}},{"type":"Feature","properties":{"kind":"rail","op":1},"geometry":{"type":"LineString","coordinates":[[9.72439,47.4115],[9.72447,47.41159]]}},{"type":"Feature","properties":{"kind":"rail","op":1},"geometry":{"type":"LineString","coordinates":[[9.72447,47.41159],[9.72472,47.41184]]}},{"type":"Feature","properties":{"kind":"rail","op":1},"geometry":{"type":"LineString","coordinates":[[9.72472,47.41184],[9.72499,47.41208]]}},{"type":"Feature","properties":{"kind":"rail","op":1},"geometry":{"type":"LineString","coordinates":[[9.72499,47.41208],[9.72528,47.41231]]}},{"type":"Feature","properties":{"kind":"rail","op":1},"geometry":{"type":"LineString","coordinates":[[9.72528,47.41231],[9.72557,47.41253]]}},{"type":"Feature","properties":{"kind":"rail","op":1},"geometry":{"type":"LineString","coordinates":[[9.72557,47.41253],[9.72566,47.4126]]}},{"type":"Feature","properties":{"kind":"rail","op":1},"geometry":{"type":"LineString","coordinates":[[9.72617,47.41292],[9.72652,47.41312]]}},{"type":"Feature","properties":{"kind":"rail","op":1},"geometry":{"type":"LineString","coordinates":[[9.72652,47.41312],[9.72676,47.41324]]}},{"type":"Feature","properties":{"kind":"rail","op":1},"geometry":{"type":"LineString","coordinates":[[9.72676,47.41324],[9.72697,47.41335]]}},{"type":"Feature","properties":{"kind":"rail","op":1},"geometry":{"type":"LineString","coordinates":[[9.72622,47.41288],[9.72656,47.41308]]}},{"type":"Feature","properties":{"kind":"rail","op":1},"geometry":{"type":"LineString","coordinates":[[9.72656,47.41308],[9.7268,47.4132]]}},{"type":"Feature","properties":{"kind":"rail","op":1},"geometry":{"type":"LineString","coordinates":[[9.7268,47.4132],[9.72703,47.41331]]}},{"type":"Feature","properties":{"kind":"rail","op":0.36},"geometry":{"type":"LineString","coordinates":[[9.74906,47.4324],[9.74924,47.43269]]}},{"type":"Feature","properties":{"kind":"rail","op":0.23},"geometry":{"type":"LineString","coordinates":[[9.74924,47.43269],[9.74932,47.43282]]}},{"type":"Feature","properties":{"kind":"rail","op":0.16},"geometry":{"type":"LineString","coordinates":[[9.74932,47.43282],[9.74941,47.43295]]}},{"type":"Feature","properties":{"kind":"rail","op":0.03},"geometry":{"type":"LineString","coordinates":[[9.74941,47.43295],[9.74979,47.43347]]}},{"type":"Feature","properties":{"kind":"rail","op":0.37},"geometry":{"type":"LineString","coordinates":[[9.749,47.43242],[9.74915,47.43267]]}},{"type":"Feature","properties":{"kind":"rail","op":0.24},"geometry":{"type":"LineString","coordinates":[[9.74915,47.43267],[9.74926,47.43284]]}},{"type":"Feature","properties":{"kind":"rail","op":0.18},"geometry":{"type":"LineString","coordinates":[[9.74926,47.43284],[9.74928,47.43286]]}},{"type":"Feature","properties":{"kind":"rail","op":0.12},"geometry":{"type":"LineString","coordinates":[[9.74928,47.43286],[9.74943,47.43308]]}},{"type":"Feature","properties":{"kind":"rail","op":0.04},"geometry":{"type":"LineString","coordinates":[[9.74943,47.43308],[9.74958,47.43328]]}},{"type":"Feature","properties":{"kind":"rail","op":1},"geometry":{"type":"LineString","coordinates":[[9.72941,47.41422],[9.73029,47.41455]]}},{"type":"Feature","properties":{"kind":"rail","op":1},"geometry":{"type":"LineString","coordinates":[[9.73029,47.41455],[9.73039,47.41458]]}},{"type":"Feature","properties":{"kind":"rail","op":1},"geometry":{"type":"LineString","coordinates":[[9.73039,47.41458],[9.7314,47.41494]]}},{"type":"Feature","properties":{"kind":"rail","op":1},"geometry":{"type":"LineString","coordinates":[[9.7314,47.41494],[9.73189,47.41511]]}},{"type":"Feature","properties":{"kind":"rail","op":1},"geometry":{"type":"LineString","coordinates":[[9.73129,47.41497],[9.73178,47.41514]]}},{"type":"Feature","properties":{"kind":"rail","op":1},"geometry":{"type":"LineString","coordinates":[[9.74658,47.42217],[9.74678,47.42246]]}},{"type":"Feature","properties":{"kind":"rail","op":1},"geometry":{"type":"LineString","coordinates":[[9.74678,47.42246],[9.7469,47.42266]]}},{"type":"Feature","properties":{"kind":"rail","op":1},"geometry":{"type":"LineString","coordinates":[[9.7469,47.42266],[9.74696,47.42275]]}},{"type":"Feature","properties":{"kind":"rail","op":1},"geometry":{"type":"LineString","coordinates":[[9.74696,47.42275],[9.747,47.42283]]}},{"type":"Feature","properties":{"kind":"rail","op":1},"geometry":{"type":"LineString","coordinates":[[9.74664,47.42215],[9.74682,47.42242]]}},{"type":"Feature","properties":{"kind":"rail","op":1},"geometry":{"type":"LineString","coordinates":[[9.74682,47.42242],[9.74695,47.42263]]}},{"type":"Feature","properties":{"kind":"rail","op":1},"geometry":{"type":"LineString","coordinates":[[9.74695,47.42263],[9.74702,47.42274]]}},{"type":"Feature","properties":{"kind":"rail","op":1},"geometry":{"type":"LineString","coordinates":[[9.74702,47.42274],[9.74706,47.42281]]}},{"type":"Feature","properties":{"kind":"rail","op":1},"geometry":{"type":"LineString","coordinates":[[9.74312,47.41937],[9.74332,47.41948]]}},{"type":"Feature","properties":{"kind":"rail","op":1},"geometry":{"type":"LineString","coordinates":[[9.74634,47.42178],[9.74664,47.42215]]}},{"type":"Feature","properties":{"kind":"rail","op":1},"geometry":{"type":"LineString","coordinates":[[9.74629,47.4218],[9.74658,47.42217]]}},{"type":"Feature","properties":{"kind":"rail","op":1},"geometry":{"type":"LineString","coordinates":[[9.746,47.42139],[9.74626,47.42167]]}},{"type":"Feature","properties":{"kind":"rail","op":1},"geometry":{"type":"LineString","coordinates":[[9.74595,47.42141],[9.7462,47.4217]]}},{"type":"Feature","properties":{"kind":"rail","op":1},"geometry":{"type":"LineString","coordinates":[[9.7455,47.42097],[9.74563,47.42109]]}},{"type":"Feature","properties":{"kind":"rail","op":1},"geometry":{"type":"LineString","coordinates":[[9.74524,47.42068],[9.7454,47.42081]]}},{"type":"Feature","properties":{"kind":"rail","op":1},"geometry":{"type":"LineString","coordinates":[[9.7454,47.42081],[9.74567,47.42106]]}},{"type":"Feature","properties":{"kind":"rail","op":1},"geometry":{"type":"LineString","coordinates":[[9.74228,47.41893],[9.74251,47.41903]]}},{"type":"Feature","properties":{"kind":"rail","op":1},"geometry":{"type":"LineString","coordinates":[[9.74225,47.41897],[9.7425,47.41908]]}},{"type":"Feature","properties":{"kind":"rail","op":1},"geometry":{"type":"LineString","coordinates":[[9.73345,47.41572],[9.73492,47.41625]]}},{"type":"Feature","properties":{"kind":"rail","op":1},"geometry":{"type":"LineString","coordinates":[[9.73348,47.41568],[9.73495,47.41621]]}},{"type":"Feature","properties":{"kind":"rail","op":1},"geometry":{"type":"LineString","coordinates":[[9.72932,47.41427],[9.72993,47.41449]]}},{"type":"Feature","properties":{"kind":"rail","op":1},"geometry":{"type":"LineString","coordinates":[[9.72838,47.41385],[9.72932,47.41419]]}},{"type":"Feature","properties":{"kind":"rail","op":1},"geometry":{"type":"LineString","coordinates":[[9.7262,47.41287],[9.72622,47.41288]]}},{"type":"Feature","properties":{"kind":"rail","op":1},"geometry":{"type":"LineString","coordinates":[[9.72616,47.41291],[9.72617,47.41292]]}},{"type":"Feature","properties":{"kind":"rail","op":1},"geometry":{"type":"LineString","coordinates":[[9.72566,47.4126],[9.72574,47.41265]]}},{"type":"Feature","properties":{"kind":"rail","op":1},"geometry":{"type":"LineString","coordinates":[[9.72574,47.41265],[9.7259,47.41276]]}},{"type":"Feature","properties":{"kind":"rail","op":1},"geometry":{"type":"LineString","coordinates":[[9.7259,47.41276],[9.72616,47.41291]]}},{"type":"Feature","properties":{"kind":"rail","op":1},"geometry":{"type":"LineString","coordinates":[[9.72571,47.41256],[9.72579,47.41262]]}},{"type":"Feature","properties":{"kind":"rail","op":1},"geometry":{"type":"LineString","coordinates":[[9.72579,47.41262],[9.72595,47.41272]]}},{"type":"Feature","properties":{"kind":"rail","op":1},"geometry":{"type":"LineString","coordinates":[[9.72595,47.41272],[9.7262,47.41287]]}},{"type":"Feature","properties":{"kind":"rail","op":0.11},"geometry":{"type":"LineString","coordinates":[[9.72203,47.39207],[9.72214,47.39218]]}},{"type":"Feature","properties":{"kind":"rail","op":0.1},"geometry":{"type":"LineString","coordinates":[[9.72206,47.39203],[9.72219,47.39215]]}}]}